start=new Date('2022-03-13T00:00:00.000Z').valueOf();
sats=[{"BSTAR":"0.00004138800000","REV_AT_EPOCH":"4394","SITE":"AFETR","MEAN_MOTION_DDOT":"0.0000000000000","APOAPSIS":"548.244","EPOCH":"2022-03-12T15:26:50.143488","NORAD_CAT_ID":"48652","CENTER_NAME":"EARTH","ECCENTRICITY":"0.00015030","OBJECT_ID":"2021-044Q","ARG_OF_PERICENTER":"77.5664","PERIOD":"95.592","ELEMENT_SET_NO":"999","REF_FRAME":"TEME","FILE":"3356931","SEMIMAJOR_AXIS":"6925.338","OBJECT_NAME":"STARLINK-2727","MEAN_MOTION_DOT":"0.00000335","GP_ID":"198606788","MEAN_ELEMENT_THEORY":"SGP4","EPHEMERIS_TYPE":"0","MEAN_MOTION":"15.06403394","MEAN_ANOMALY":"282.5493","RCS_SIZE":"LARGE","RA_OF_ASC_NODE":"187.0419","LAUNCH_DATE":"2021-05-26","PERIAPSIS":"546.162","CLASSIFICATION_TYPE":"U","TLE_LINE2":"2 48652  53.0543 187.0419 0001503  77.5664 282.5493 15.06403394 43949","COUNTRY_CODE":"US","INCLINATION":"53.0543","OBJECT_TYPE":"PAYLOAD","TLE_LINE1":"1 48652U 21044Q   22071.64363592  .00000335  00000-0  41388-4 0  9995","TIME_SYSTEM":"UTC","DECAY_DATE":null},{"MEAN_MOTION_DOT":"-0.00001777","SEMIMAJOR_AXIS":"6925.333","FILE":"3356931","OBJECT_NAME":"STARLINK-2720","PERIOD":"95.592","ELEMENT_SET_NO":"999","REF_FRAME":"TEME","OBJECT_ID":"2021-044R","ARG_OF_PERICENTER":"67.0148","ECCENTRICITY":"0.00016230","CENTER_NAME":"EARTH","EPOCH":"2022-03-12T18:32:36.573792","NORAD_CAT_ID":"48653","MEAN_MOTION_DDOT":"0.0000000000000","APOAPSIS":"548.322","BSTAR":"-0.00010042000000","REV_AT_EPOCH":"4396","SITE":"AFETR","TIME_SYSTEM":"UTC","DECAY_DATE":null,"COUNTRY_CODE":"US","INCLINATION":"53.0540","OBJECT_TYPE":"PAYLOAD","TLE_LINE1":"1 48653U 21044R   22071.77264553 -.00001777  00000-0 -10042-3 0  9992","PERIAPSIS":"546.074","CLASSIFICATION_TYPE":"U","TLE_LINE2":"2 48653  53.0540 186.4599 0001623  67.0148 293.1012 15.06405176 43960","RCS_SIZE":"LARGE","RA_OF_ASC_NODE":"186.4599","LAUNCH_DATE":"2021-05-26","MEAN_MOTION":"15.06405176","MEAN_ANOMALY":"293.1012","GP_ID":"198607539","MEAN_ELEMENT_THEORY":"SGP4","EPHEMERIS_TYPE":"0"},{"SEMIMAJOR_AXIS":"6925.314","FILE":"3356931","OBJECT_NAME":"STARLINK-2651","MEAN_MOTION_DOT":"-0.00001240","OBJECT_ID":"2021-044S","ARG_OF_PERICENTER":"74.9194","PERIOD":"95.591","ELEMENT_SET_NO":"999","REF_FRAME":"TEME","EPOCH":"2022-03-12T15:16:12.606528","NORAD_CAT_ID":"48654","CENTER_NAME":"EARTH","ECCENTRICITY":"0.00013540","BSTAR":"-0.00006434100000","REV_AT_EPOCH":"4394","SITE":"AFETR","MEAN_MOTION_DDOT":"0.0000000000000","APOAPSIS":"548.116","COUNTRY_CODE":"US","INCLINATION":"53.0528","OBJECT_TYPE":"PAYLOAD","TLE_LINE1":"1 48654U 21044S   22071.63625702 -.00001240  00000-0 -64341-4 0  9992","TIME_SYSTEM":"UTC","DECAY_DATE":null,"RCS_SIZE":"LARGE","RA_OF_ASC_NODE":"187.0766","LAUNCH_DATE":"2021-05-26","PERIAPSIS":"546.241","CLASSIFICATION_TYPE":"U","TLE_LINE2":"2 48654  53.0528 187.0766 0001354  74.9194 285.1945 15.06411380 43947","MEAN_MOTION":"15.06411380","MEAN_ANOMALY":"285.1945","GP_ID":"198606287","MEAN_ELEMENT_THEORY":"SGP4","EPHEMERIS_TYPE":"0"},{"CLASSIFICATION_TYPE":"U","TLE_LINE2":"2 48655  53.0547 186.2072 0001815  70.8630 289.2555 15.06407781 43977","PERIAPSIS":"545.933","LAUNCH_DATE":"2021-05-26","RCS_SIZE":"LARGE","RA_OF_ASC_NODE":"186.2072","DECAY_DATE":null,"TIME_SYSTEM":"UTC","TLE_LINE1":"1 48655U 21044T   22071.83161734 -.00001596  00000-0 -88250-4 0  9994","COUNTRY_CODE":"US","INCLINATION":"53.0547","OBJECT_TYPE":"PAYLOAD","EPHEMERIS_TYPE":"0","MEAN_ELEMENT_THEORY":"SGP4","GP_ID":"198606537","MEAN_MOTION":"15.06407781","MEAN_ANOMALY":"289.2555","ELEMENT_SET_NO":"999","REF_FRAME":"TEME","PERIOD":"95.592","OBJECT_ID":"2021-044T","ARG_OF_PERICENTER":"70.8630","MEAN_MOTION_DOT":"-0.00001596","OBJECT_NAME":"STARLINK-2657","SEMIMAJOR_AXIS":"6925.325","FILE":"3356931","APOAPSIS":"548.447","MEAN_MOTION_DDOT":"0.0000000000000","REV_AT_EPOCH":"4397","SITE":"AFETR","BSTAR":"-0.00008825000000","CENTER_NAME":"EARTH","ECCENTRICITY":"0.00018150","EPOCH":"2022-03-12T19:57:31.738176","NORAD_CAT_ID":"48655"},{"TIME_SYSTEM":"UTC","DECAY_DATE":null,"OBJECT_TYPE":"PAYLOAD","INCLINATION":"53.0535","COUNTRY_CODE":"US","TLE_LINE1":"1 48656U 21044U   22071.82793972  .00012247  00000-0  83933-3 0  9994","PERIAPSIS":"546.148","TLE_LINE2":"2 48656  53.0535 186.2133 0001480  72.5651 287.5499 15.06413345 43974","CLASSIFICATION_TYPE":"U","RA_OF_ASC_NODE":"186.2133","RCS_SIZE":"LARGE","LAUNCH_DATE":"2021-05-26","MEAN_ANOMALY":"287.5499","MEAN_MOTION":"15.06413345","GP_ID":"198607289","MEAN_ELEMENT_THEORY":"SGP4","EPHEMERIS_TYPE":"0","MEAN_MOTION_DOT":"0.00012247","FILE":"3356931","SEMIMAJOR_AXIS":"6925.308","OBJECT_NAME":"STARLINK-2701","PERIOD":"95.591","ELEMENT_SET_NO":"999","REF_FRAME":"TEME","ARG_OF_PERICENTER":"72.5651","OBJECT_ID":"2021-044U","CENTER_NAME":"EARTH","ECCENTRICITY":"0.00014800","NORAD_CAT_ID":"48656","EPOCH":"2022-03-12T19:52:13.991808","MEAN_MOTION_DDOT":"0.0000000000000","APOAPSIS":"548.198","BSTAR":"0.00083933000000","SITE":"AFETR","REV_AT_EPOCH":"4397"},{"GP_ID":"198607039","MEAN_ELEMENT_THEORY":"SGP4","EPHEMERIS_TYPE":"0","MEAN_MOTION":"15.06408623","MEAN_ANOMALY":"287.0545","PERIAPSIS":"546.180","CLASSIFICATION_TYPE":"U","TLE_LINE2":"2 48657  53.0539 186.2315 0001454  73.0604 287.0545 15.06408623 43976","RCS_SIZE":"LARGE","RA_OF_ASC_NODE":"186.2315","LAUNCH_DATE":"2021-05-26","TIME_SYSTEM":"UTC","DECAY_DATE":null,"COUNTRY_CODE":"US","INCLINATION":"53.0539","OBJECT_TYPE":"PAYLOAD","TLE_LINE1":"1 48657U 21044V   22071.82423957 -.00001564  00000-0 -86131-4 0  9994","MEAN_MOTION_DDOT":"0.0000000000000","APOAPSIS":"548.194","BSTAR":"-0.00008613100000","REV_AT_EPOCH":"4397","SITE":"AFETR","CENTER_NAME":"EARTH","ECCENTRICITY":"0.00014540","EPOCH":"2022-03-12T19:46:54.298848","NORAD_CAT_ID":"48657","PERIOD":"95.592","ELEMENT_SET_NO":"999","REF_FRAME":"TEME","OBJECT_ID":"2021-044V","ARG_OF_PERICENTER":"73.0604","MEAN_MOTION_DOT":"-0.00001564","SEMIMAJOR_AXIS":"6925.322","FILE":"3356931","OBJECT_NAME":"STARLINK-2734"},{"TIME_SYSTEM":"UTC","DECAY_DATE":null,"INCLINATION":"53.0528","COUNTRY_CODE":"US","OBJECT_TYPE":"PAYLOAD","TLE_LINE1":"1 48658U 21044W   22071.68786526  .00000017  00000-0  20062-4 0  9994","PERIAPSIS":"546.152","CLASSIFICATION_TYPE":"U","TLE_LINE2":"2 48658  53.0528 186.8525 0001498  60.2455 299.8683 15.06407838 43953","RCS_SIZE":"LARGE","RA_OF_ASC_NODE":"186.8525","LAUNCH_DATE":"2021-05-26","MEAN_MOTION":"15.06407838","MEAN_ANOMALY":"299.8683","GP_ID":"198605787","MEAN_ELEMENT_THEORY":"SGP4","EPHEMERIS_TYPE":"0","MEAN_MOTION_DOT":"0.00000017","FILE":"3356931","SEMIMAJOR_AXIS":"6925.325","OBJECT_NAME":"STARLINK-2647","PERIOD":"95.592","ELEMENT_SET_NO":"999","REF_FRAME":"TEME","OBJECT_ID":"2021-044W","ARG_OF_PERICENTER":"60.2455","CENTER_NAME":"EARTH","ECCENTRICITY":"0.00014980","EPOCH":"2022-03-12T16:30:31.558464","NORAD_CAT_ID":"48658","MEAN_MOTION_DDOT":"0.0000000000000","APOAPSIS":"548.227","BSTAR":"0.00002006200000","REV_AT_EPOCH":"4395","SITE":"AFETR"},{"TLE_LINE1":"1 48659U 21044X   22071.68419007  .00008401  00000-0  58204-3 0  9995","COUNTRY_CODE":"US","INCLINATION":"53.0526","OBJECT_TYPE":"PAYLOAD","DECAY_DATE":null,"TIME_SYSTEM":"UTC","LAUNCH_DATE":"2021-05-26","RCS_SIZE":"LARGE","RA_OF_ASC_NODE":"186.8668","CLASSIFICATION_TYPE":"U","TLE_LINE2":"2 48659  53.0526 186.8668 0001208  65.8629 294.2486 15.06410223 43955","PERIAPSIS":"546.346","MEAN_MOTION":"15.06410223","MEAN_ANOMALY":"294.2486","EPHEMERIS_TYPE":"0","MEAN_ELEMENT_THEORY":"SGP4","GP_ID":"198606037","OBJECT_NAME":"STARLINK-2717","SEMIMAJOR_AXIS":"6925.317","FILE":"3356931","MEAN_MOTION_DOT":"0.00008401","ARG_OF_PERICENTER":"65.8629","OBJECT_ID":"2021-044X","ELEMENT_SET_NO":"999","REF_FRAME":"TEME","PERIOD":"95.591","EPOCH":"2022-03-12T16:25:14.022048","NORAD_CAT_ID":"48659","ECCENTRICITY":"0.00012080","CENTER_NAME":"EARTH","REV_AT_EPOCH":"4395","SITE":"AFETR","BSTAR":"0.00058204000000","APOAPSIS":"548.019","MEAN_MOTION_DDOT":"0.0000000000000"},{"TIME_SYSTEM":"UTC","DECAY_DATE":null,"INCLINATION":"53.0551","COUNTRY_CODE":"US","OBJECT_TYPE":"PAYLOAD","TLE_LINE1":"1 48660U 21044Y   22071.68051445  .00002678  00000-0  19861-3 0  9991","PERIAPSIS":"546.466","CLASSIFICATION_TYPE":"U","TLE_LINE2":"2 48660  53.0551 186.8831 0001100  77.8568 282.2544 15.06395500 43955","RCS_SIZE":"LARGE","RA_OF_ASC_NODE":"186.8831","LAUNCH_DATE":"2021-05-26","MEAN_MOTION":"15.06395500","MEAN_ANOMALY":"282.2544","GP_ID":"198606789","MEAN_ELEMENT_THEORY":"SGP4","EPHEMERIS_TYPE":"0","MEAN_MOTION_DOT":"0.00002678","FILE":"3356931","SEMIMAJOR_AXIS":"6925.362","OBJECT_NAME":"STARLINK-2688","PERIOD":"95.592","REF_FRAME":"TEME","ELEMENT_SET_NO":"999","ARG_OF_PERICENTER":"77.8568","OBJECT_ID":"2021-044Y","ECCENTRICITY":"0.00011000","CENTER_NAME":"EARTH","EPOCH":"2022-03-12T16:19:56.448480","NORAD_CAT_ID":"48660","MEAN_MOTION_DDOT":"0.0000000000000","APOAPSIS":"547.989","BSTAR":"0.00019861000000","REV_AT_EPOCH":"4395","SITE":"AFETR"},{"REV_AT_EPOCH":"4410","SITE":"AFETR","BSTAR":"0.00015420000000","APOAPSIS":"548.280","MEAN_MOTION_DDOT":"0.0000000000000","EPOCH":"2022-03-12T17:56:47.608800","NORAD_CAT_ID":"48661","CENTER_NAME":"EARTH","ECCENTRICITY":"0.00015520","ARG_OF_PERICENTER":"53.7596","OBJECT_ID":"2021-044Z","ELEMENT_SET_NO":"999","REF_FRAME":"TEME","PERIOD":"95.592","OBJECT_NAME":"STARLINK-2708","FILE":"3356931","SEMIMAJOR_AXIS":"6925.340","MEAN_MOTION_DOT":"0.00002016","EPHEMERIS_TYPE":"0","GP_ID":"198607540","MEAN_ELEMENT_THEORY":"SGP4","MEAN_MOTION":"15.06402872","MEAN_ANOMALY":"306.3536","LAUNCH_DATE":"2021-05-26","RCS_SIZE":"LARGE","RA_OF_ASC_NODE":"176.5783","CLASSIFICATION_TYPE":"U","TLE_LINE2":"2 48661  53.0558 176.5783 0001552  53.7596 306.3536 15.06402872 44108","PERIAPSIS":"546.130","TLE_LINE1":"1 48661U 21044Z   22071.74777325  .00002016  00000-0  15420-3 0  9994","INCLINATION":"53.0558","COUNTRY_CODE":"US","OBJECT_TYPE":"PAYLOAD","DECAY_DATE":null,"TIME_SYSTEM":"UTC"}];
